STARLINK-32527          
1 62319U 24239U   26068.52617986  .00018455  00000+0  63398-3 0  9991
2 62319  53.1574 181.5540 0001160  65.5652 294.5470 15.30184744 69541
HERMES-3                
1 63835U 25052BR  26068.93751242  .00020316  00000+0  69958-3 0  9995
2 63835  97.3987 324.6131 0007993 112.9583 247.2502 15.30039785 54863
