[{"OBJECT_NAME":"STARLINK-32527","OBJECT_ID":"2024-239U","EPOCH":"2026-03-09T12:37:41.939904","MEAN_MOTION":15.30184744,"ECCENTRICITY":0.00011606,"INCLINATION":53.1574,"RA_OF_ASC_NODE":181.554,"ARG_OF_PERICENTER":65.5652,"MEAN_ANOMALY":294.547,"EPHEMERIS_TYPE":0,"CLASSIFICATION_TYPE":"U","NORAD_CAT_ID":62319,"ELEMENT_SET_NO":999,"REV_AT_EPOCH":6954,"BSTAR":0.00063397829,"MEAN_MOTION_DOT":0.00018455,"MEAN_MOTION_DDOT":0},{"OBJECT_NAME":"HERMES-3","OBJECT_ID":"2025-052BR","EPOCH":"2026-03-09T22:30:01.073952","MEAN_MOTION":15.30039786,"ECCENTRICITY":0.00079928,"INCLINATION":97.3987,"RA_OF_ASC_NODE":324.6131,"ARG_OF_PERICENTER":112.9583,"MEAN_ANOMALY":247.2502,"EPHEMERIS_TYPE":0,"CLASSIFICATION_TYPE":"U","NORAD_CAT_ID":63835,"ELEMENT_SET_NO":999,"REV_AT_EPOCH":5486,"BSTAR":0.0006995793,"MEAN_MOTION_DOT":0.00020316,"MEAN_MOTION_DDOT":0}]
